[{"OBJECT_NAME":"STARLINK-34691","OBJECT_ID":"2025-212R","EPOCH":"2026-03-09T22:00:01.999584","MEAN_MOTION":15.30204629,"ECCENTRICITY":0.00013613,"INCLINATION":53.1595,"RA_OF_ASC_NODE":334.2466,"ARG_OF_PERICENTER":81.7261,"MEAN_ANOMALY":279.6871,"EPHEMERIS_TYPE":0,"CLASSIFICATION_TYPE":"U","NORAD_CAT_ID":65691,"ELEMENT_SET_NO":999,"REV_AT_EPOCH":574,"BSTAR":-0.00047559657,"MEAN_MOTION_DOT":-0.0001442,"MEAN_MOTION_DDOT":0},{"OBJECT_NAME":"OBJECT L","OBJECT_ID":"2024-024L","EPOCH":"2026-03-09T22:36:05.522976","MEAN_MOTION":15.29373491,"ECCENTRICITY":0.00073185,"INCLINATION":97.3169,"RA_OF_ASC_NODE":137.7038,"ARG_OF_PERICENTER":167.6369,"MEAN_ANOMALY":192.5052,"EPHEMERIS_TYPE":0,"CLASSIFICATION_TYPE":"U","NORAD_CAT_ID":58927,"ELEMENT_SET_NO":999,"REV_AT_EPOCH":9318,"BSTAR":0.00043092344,"MEAN_MOTION_DOT":0.00012217,"MEAN_MOTION_DDOT":0}]
